[{"OBJECT_NAME":"ONEWEB-0562","OBJECT_ID":"2023-029D","EPOCH":"2026-03-09T16:17:10.919904","MEAN_MOTION":13.20770955,"ECCENTRICITY":8.723e-5,"INCLINATION":87.9163,"RA_OF_ASC_NODE":294.3285,"ARG_OF_PERICENTER":61.6933,"MEAN_ANOMALY":298.4288,"EPHEMERIS_TYPE":0,"CLASSIFICATION_TYPE":"U","NORAD_CAT_ID":55799,"ELEMENT_SET_NO":999,"REV_AT_EPOCH":14801,"BSTAR":-0.00043162314,"MEAN_MOTION_DOT":-1.63e-6,"MEAN_MOTION_DDOT":0},{"OBJECT_NAME":"COSMOS 970 DEB","OBJECT_ID":"1977-121D","EPOCH":"2026-03-09T13:50:02.700096","MEAN_MOTION":13.36757633,"ECCENTRICITY":0.0084617,"INCLINATION":65.8696,"RA_OF_ASC_NODE":139.2268,"ARG_OF_PERICENTER":134.762,"MEAN_ANOMALY":336.3173,"EPHEMERIS_TYPE":0,"CLASSIFICATION_TYPE":"U","NORAD_CAT_ID":10562,"ELEMENT_SET_NO":999,"REV_AT_EPOCH":34819,"BSTAR":0.00039332,"MEAN_MOTION_DOT":1.36e-6,"MEAN_MOTION_DDOT":0}]
